[{"OBJECT_NAME":"STARLINK-30481","OBJECT_ID":"2023-146J","EPOCH":"2026-03-09T22:00:01.999584","MEAN_MOTION":15.08687801,"ECCENTRICITY":0.00016647,"INCLINATION":42.9998,"RA_OF_ASC_NODE":311.9974,"ARG_OF_PERICENTER":260.7497,"MEAN_ANOMALY":28.8747,"EPHEMERIS_TYPE":0,"CLASSIFICATION_TYPE":"U","NORAD_CAT_ID":57899,"ELEMENT_SET_NO":999,"REV_AT_EPOCH":577,"BSTAR":0.09858141,"MEAN_MOTION_DOT":0.01723889,"MEAN_MOTION_DDOT":0},{"OBJECT_NAME":"COSMOS 2251 DEB","OBJECT_ID":"1993-036TX","EPOCH":"2026-03-09T08:00:49.998528","MEAN_MOTION":15.19675953,"ECCENTRICITY":0.00326805,"INCLINATION":74.0422,"RA_OF_ASC_NODE":187.2566,"ARG_OF_PERICENTER":9.105,"MEAN_ANOMALY":22.3257,"EPHEMERIS_TYPE":0,"CLASSIFICATION_TYPE":"U","NORAD_CAT_ID":34478,"ELEMENT_SET_NO":999,"REV_AT_EPOCH":90283,"BSTAR":0.0038377669,"MEAN_MOTION_DOT":0.00083988,"MEAN_MOTION_DDOT":0}]
